[{"OBJECT_NAME":"IRIDIUM 154","OBJECT_ID":"2018-061F","EPOCH":"2026-03-09T19:28:30.566496","MEAN_MOTION":14.34219109,"ECCENTRICITY":0.00022519,"INCLINATION":86.3916,"RA_OF_ASC_NODE":98.3738,"ARG_OF_PERICENTER":97.8524,"MEAN_ANOMALY":262.2928,"EPHEMERIS_TYPE":0,"CLASSIFICATION_TYPE":"U","NORAD_CAT_ID":43574,"ELEMENT_SET_NO":999,"REV_AT_EPOCH":39916,"BSTAR":1.1681552e-5,"MEAN_MOTION_DOT":5.3e-7,"MEAN_MOTION_DDOT":0},{"OBJECT_NAME":"COSMOS 1867","OBJECT_ID":"1987-060A","EPOCH":"2026-03-09T22:19:38.108352","MEAN_MOTION":14.3150308,"ECCENTRICITY":0.00144918,"INCLINATION":65.0112,"RA_OF_ASC_NODE":306.0319,"ARG_OF_PERICENTER":278.665,"MEAN_ANOMALY":81.2793,"EPHEMERIS_TYPE":0,"CLASSIFICATION_TYPE":"U","NORAD_CAT_ID":18187,"ELEMENT_SET_NO":999,"REV_AT_EPOCH":1997,"BSTAR":3.4837182e-5,"MEAN_MOTION_DOT":-7.0e-8,"MEAN_MOTION_DDOT":0}]
